ONEWEB-0703             
1 56724U 23068Q   25319.46108963 -.00000062  00000+0 -19936-3 0  9990
2 56724  87.8963 301.8613 0002560 108.6551 251.4858 13.15547469121156
ONEWEB-0721             
1 56725U 23068R   25319.55270567  .00000047  00000+0  79252-4 0  9990
2 56725  86.6795 153.6578 0001445  85.9424 274.1875 13.22450528129704
ONEWEB-0015             
1 61594U 24188A   25319.67850698  .00000272  00000+0  73087-3 0  9995
2 61594  87.8868  63.6183 0001174 118.8229 241.3017 13.11415329 56473
ONEWEB-0687             
1 61595U 24188B   25319.69827267  .00000098  00000+0  21895-3 0  9990
2 61595  87.9121  48.3541 0001113  92.3702 267.7556 13.17645102 57785
ONEWEB-0688             
1 61596U 24188C   25319.72693505 -.00000289  00000+0 -77755-3 0  9991
2 61596  87.9130  48.3490 0000927 150.3334 209.7850 13.17650708 57788
ONEWEB-0689             
1 61597U 24188D   25319.71239256 -.00000446  00000+0 -12947-2 0  9996
2 61597  87.8841  63.5491 0001432  91.2821 268.8471 13.11416645 56477
ONEWEB-0690             
1 61598U 24188E   25319.72258910 -.00000201  00000+0 -60388-3 0  9998
2 61598  87.8880  63.5526 0002257 114.9966 245.1396 13.11419023 56656
ONEWEB-0691             
1 61599U 24188F   25319.71749954 -.00000287  00000+0 -84672-3 0  9997
2 61599  87.8826  63.4660 0001372 115.0287 245.0983 13.11418120 56502
ONEWEB-0692             
1 61600U 24188G   25319.73785499  .00000538  00000+0  14810-2 0  9999
2 61600  87.8859  63.6004 0002274  81.2100 278.9286 13.11422679 56498
ONEWEB-0693             
1 61601U 24188H   25319.51094375  .00000017  00000+0  96136-5 0  9998
2 61601  87.9124  48.4103 0002187 122.8797 237.2545 13.17651587 57746
ONEWEB-0695             
1 61602U 24188J   25319.33260787 -.00000326  00000+0 -95579-3 0  9994
2 61602  87.8861  63.6695 0001653  82.6499 277.4817 13.11416588 56435
ONEWEB-0697             
1 61603U 24188K   25319.74634036  .00000523  00000+0  14393-2 0  9993
2 61603  87.8859  63.5777 0002195  84.9254 275.2124 13.11415807 56473
ONEWEB-0698             
1 61604U 24188L   25319.72428485 -.00000059  00000+0 -20361-3 0  9990
2 61604  87.8862  63.5967 0002726  97.6029 262.5408 13.11418553 56497
ONEWEB-0699             
1 61605U 24188M   25319.56722762 -.00002828  00000+0 -81374-2 0  9994
2 61605  87.8813  78.8414 0002906  81.7050 278.4407 13.10389569 55338
ONEWEB-0700             
1 61606U 24188N   25319.72161263  .00000422  00000+0  11738-2 0  9999
2 61606  87.8819  78.6945 0001627  75.5157 284.6151 13.10371618 55342
ONEWEB-0701             
1 61607U 24188P   25319.58547514 -.00000454  00000+0 -13371-2 0  9993
2 61607  87.8806  78.8397 0002207  84.4895 275.6484 13.10372393 55334
ONEWEB-0702             
1 61608U 24188Q   25319.69376647 -.00000353  00000+0 -10327-2 0  9999
2 61608  87.8820  63.4995 0002108  77.9652 282.1712 13.11414751 56506
