[{"OBJECT_NAME":"ONEWEB-0703","OBJECT_ID":"2023-068Q","EPOCH":"2025-11-15T11:03:58.144032","MEAN_MOTION":13.15547469,"ECCENTRICITY":0.000256,"INCLINATION":87.8963,"RA_OF_ASC_NODE":301.8613,"ARG_OF_PERICENTER":108.6551,"MEAN_ANOMALY":251.4858,"EPHEMERIS_TYPE":0,"CLASSIFICATION_TYPE":"U","NORAD_CAT_ID":56724,"ELEMENT_SET_NO":999,"REV_AT_EPOCH":12115,"BSTAR":-0.00019936,"MEAN_MOTION_DOT":-6.2e-7,"MEAN_MOTION_DDOT":0},{"OBJECT_NAME":"ONEWEB-0721","OBJECT_ID":"2023-068R","EPOCH":"2025-11-15T13:15:53.769888","MEAN_MOTION":13.22450528,"ECCENTRICITY":0.0001445,"INCLINATION":86.6795,"RA_OF_ASC_NODE":153.6578,"ARG_OF_PERICENTER":85.9424,"MEAN_ANOMALY":274.1875,"EPHEMERIS_TYPE":0,"CLASSIFICATION_TYPE":"U","NORAD_CAT_ID":56725,"ELEMENT_SET_NO":999,"REV_AT_EPOCH":12970,"BSTAR":7.9252e-5,"MEAN_MOTION_DOT":4.7e-7,"MEAN_MOTION_DDOT":0},{"OBJECT_NAME":"ONEWEB-0015","OBJECT_ID":"2024-188A","EPOCH":"2025-11-15T16:17:03.003072","MEAN_MOTION":13.11415329,"ECCENTRICITY":0.0001174,"INCLINATION":87.8868,"RA_OF_ASC_NODE":63.6183,"ARG_OF_PERICENTER":118.8229,"MEAN_ANOMALY":241.3017,"EPHEMERIS_TYPE":0,"CLASSIFICATION_TYPE":"U","NORAD_CAT_ID":61594,"ELEMENT_SET_NO":999,"REV_AT_EPOCH":5647,"BSTAR":0.00073087,"MEAN_MOTION_DOT":2.72e-6,"MEAN_MOTION_DDOT":0},{"OBJECT_NAME":"ONEWEB-0687","OBJECT_ID":"2024-188B","EPOCH":"2025-11-15T16:45:30.758688","MEAN_MOTION":13.17645102,"ECCENTRICITY":0.0001113,"INCLINATION":87.9121,"RA_OF_ASC_NODE":48.3541,"ARG_OF_PERICENTER":92.3702,"MEAN_ANOMALY":267.7556,"EPHEMERIS_TYPE":0,"CLASSIFICATION_TYPE":"U","NORAD_CAT_ID":61595,"ELEMENT_SET_NO":999,"REV_AT_EPOCH":5778,"BSTAR":0.00021895,"MEAN_MOTION_DOT":9.8e-7,"MEAN_MOTION_DDOT":0},{"OBJECT_NAME":"ONEWEB-0688","OBJECT_ID":"2024-188C","EPOCH":"2025-11-15T17:26:47.188320","MEAN_MOTION":13.17650708,"ECCENTRICITY":9.27e-5,"INCLINATION":87.913,"RA_OF_ASC_NODE":48.349,"ARG_OF_PERICENTER":150.3334,"MEAN_ANOMALY":209.785,"EPHEMERIS_TYPE":0,"CLASSIFICATION_TYPE":"U","NORAD_CAT_ID":61596,"ELEMENT_SET_NO":999,"REV_AT_EPOCH":5778,"BSTAR":-0.00077755,"MEAN_MOTION_DOT":-2.89e-6,"MEAN_MOTION_DDOT":0},{"OBJECT_NAME":"ONEWEB-0689","OBJECT_ID":"2024-188D","EPOCH":"2025-11-15T17:05:50.717184","MEAN_MOTION":13.11416645,"ECCENTRICITY":0.0001432,"INCLINATION":87.8841,"RA_OF_ASC_NODE":63.5491,"ARG_OF_PERICENTER":91.2821,"MEAN_ANOMALY":268.8471,"EPHEMERIS_TYPE":0,"CLASSIFICATION_TYPE":"U","NORAD_CAT_ID":61597,"ELEMENT_SET_NO":999,"REV_AT_EPOCH":5647,"BSTAR":-0.0012947,"MEAN_MOTION_DOT":-4.46e-6,"MEAN_MOTION_DDOT":0},{"OBJECT_NAME":"ONEWEB-0690","OBJECT_ID":"2024-188E","EPOCH":"2025-11-15T17:20:31.698240","MEAN_MOTION":13.11419023,"ECCENTRICITY":0.0002257,"INCLINATION":87.888,"RA_OF_ASC_NODE":63.5526,"ARG_OF_PERICENTER":114.9966,"MEAN_ANOMALY":245.1396,"EPHEMERIS_TYPE":0,"CLASSIFICATION_TYPE":"U","NORAD_CAT_ID":61598,"ELEMENT_SET_NO":999,"REV_AT_EPOCH":5665,"BSTAR":-0.00060388,"MEAN_MOTION_DOT":-2.01e-6,"MEAN_MOTION_DDOT":0},{"OBJECT_NAME":"ONEWEB-0691","OBJECT_ID":"2024-188F","EPOCH":"2025-11-15T17:13:11.960256","MEAN_MOTION":13.1141812,"ECCENTRICITY":0.0001372,"INCLINATION":87.8826,"RA_OF_ASC_NODE":63.466,"ARG_OF_PERICENTER":115.0287,"MEAN_ANOMALY":245.0983,"EPHEMERIS_TYPE":0,"CLASSIFICATION_TYPE":"U","NORAD_CAT_ID":61599,"ELEMENT_SET_NO":999,"REV_AT_EPOCH":5650,"BSTAR":-0.00084672,"MEAN_MOTION_DOT":-2.87e-6,"MEAN_MOTION_DDOT":0},{"OBJECT_NAME":"ONEWEB-0692","OBJECT_ID":"2024-188G","EPOCH":"2025-11-15T17:42:30.671136","MEAN_MOTION":13.11422679,"ECCENTRICITY":0.0002274,"INCLINATION":87.8859,"RA_OF_ASC_NODE":63.6004,"ARG_OF_PERICENTER":81.21,"MEAN_ANOMALY":278.9286,"EPHEMERIS_TYPE":0,"CLASSIFICATION_TYPE":"U","NORAD_CAT_ID":61600,"ELEMENT_SET_NO":999,"REV_AT_EPOCH":5649,"BSTAR":0.001481,"MEAN_MOTION_DOT":5.38e-6,"MEAN_MOTION_DDOT":0},{"OBJECT_NAME":"ONEWEB-0693","OBJECT_ID":"2024-188H","EPOCH":"2025-11-15T12:15:45.540000","MEAN_MOTION":13.17651587,"ECCENTRICITY":0.0002187,"INCLINATION":87.9124,"RA_OF_ASC_NODE":48.4103,"ARG_OF_PERICENTER":122.8797,"MEAN_ANOMALY":237.2545,"EPHEMERIS_TYPE":0,"CLASSIFICATION_TYPE":"U","NORAD_CAT_ID":61601,"ELEMENT_SET_NO":999,"REV_AT_EPOCH":5774,"BSTAR":9.6136e-6,"MEAN_MOTION_DOT":1.7e-7,"MEAN_MOTION_DDOT":0},{"OBJECT_NAME":"ONEWEB-0695","OBJECT_ID":"2024-188J","EPOCH":"2025-11-15T07:58:57.319968","MEAN_MOTION":13.11416588,"ECCENTRICITY":0.0001653,"INCLINATION":87.8861,"RA_OF_ASC_NODE":63.6695,"ARG_OF_PERICENTER":82.6499,"MEAN_ANOMALY":277.4817,"EPHEMERIS_TYPE":0,"CLASSIFICATION_TYPE":"U","NORAD_CAT_ID":61602,"ELEMENT_SET_NO":999,"REV_AT_EPOCH":5643,"BSTAR":-0.00095579,"MEAN_MOTION_DOT":-3.26e-6,"MEAN_MOTION_DDOT":0},{"OBJECT_NAME":"ONEWEB-0697","OBJECT_ID":"2024-188K","EPOCH":"2025-11-15T17:54:43.807104","MEAN_MOTION":13.11415807,"ECCENTRICITY":0.0002195,"INCLINATION":87.8859,"RA_OF_ASC_NODE":63.5777,"ARG_OF_PERICENTER":84.9254,"MEAN_ANOMALY":275.2124,"EPHEMERIS_TYPE":0,"CLASSIFICATION_TYPE":"U","NORAD_CAT_ID":61603,"ELEMENT_SET_NO":999,"REV_AT_EPOCH":5647,"BSTAR":0.0014393,"MEAN_MOTION_DOT":5.23e-6,"MEAN_MOTION_DDOT":0},{"OBJECT_NAME":"ONEWEB-0698","OBJECT_ID":"2024-188L","EPOCH":"2025-11-15T17:22:58.211040","MEAN_MOTION":13.11418553,"ECCENTRICITY":0.0002726,"INCLINATION":87.8862,"RA_OF_ASC_NODE":63.5967,"ARG_OF_PERICENTER":97.6029,"MEAN_ANOMALY":262.5408,"EPHEMERIS_TYPE":0,"CLASSIFICATION_TYPE":"U","NORAD_CAT_ID":61604,"ELEMENT_SET_NO":999,"REV_AT_EPOCH":5649,"BSTAR":-0.00020361,"MEAN_MOTION_DOT":-5.9e-7,"MEAN_MOTION_DDOT":0},{"OBJECT_NAME":"ONEWEB-0699","OBJECT_ID":"2024-188M","EPOCH":"2025-11-15T13:36:48.466368","MEAN_MOTION":13.10389569,"ECCENTRICITY":0.0002906,"INCLINATION":87.8813,"RA_OF_ASC_NODE":78.8414,"ARG_OF_PERICENTER":81.705,"MEAN_ANOMALY":278.4407,"EPHEMERIS_TYPE":0,"CLASSIFICATION_TYPE":"U","NORAD_CAT_ID":61605,"ELEMENT_SET_NO":999,"REV_AT_EPOCH":5533,"BSTAR":-0.0081374,"MEAN_MOTION_DOT":-2.828e-5,"MEAN_MOTION_DDOT":0},{"OBJECT_NAME":"ONEWEB-0700","OBJECT_ID":"2024-188N","EPOCH":"2025-11-15T17:19:07.331232","MEAN_MOTION":13.10371618,"ECCENTRICITY":0.0001627,"INCLINATION":87.8819,"RA_OF_ASC_NODE":78.6945,"ARG_OF_PERICENTER":75.5157,"MEAN_ANOMALY":284.6151,"EPHEMERIS_TYPE":0,"CLASSIFICATION_TYPE":"U","NORAD_CAT_ID":61606,"ELEMENT_SET_NO":999,"REV_AT_EPOCH":5534,"BSTAR":0.0011738,"MEAN_MOTION_DOT":4.22e-6,"MEAN_MOTION_DDOT":0},{"OBJECT_NAME":"ONEWEB-0701","OBJECT_ID":"2024-188P","EPOCH":"2025-11-15T14:03:05.052096","MEAN_MOTION":13.10372393,"ECCENTRICITY":0.0002207,"INCLINATION":87.8806,"RA_OF_ASC_NODE":78.8397,"ARG_OF_PERICENTER":84.4895,"MEAN_ANOMALY":275.6484,"EPHEMERIS_TYPE":0,"CLASSIFICATION_TYPE":"U","NORAD_CAT_ID":61607,"ELEMENT_SET_NO":999,"REV_AT_EPOCH":5533,"BSTAR":-0.0013371,"MEAN_MOTION_DOT":-4.54e-6,"MEAN_MOTION_DDOT":0},{"OBJECT_NAME":"ONEWEB-0702","OBJECT_ID":"2024-188Q","EPOCH":"2025-11-15T16:39:01.423008","MEAN_MOTION":13.11414751,"ECCENTRICITY":0.0002108,"INCLINATION":87.882,"RA_OF_ASC_NODE":63.4995,"ARG_OF_PERICENTER":77.9652,"MEAN_ANOMALY":282.1712,"EPHEMERIS_TYPE":0,"CLASSIFICATION_TYPE":"U","NORAD_CAT_ID":61608,"ELEMENT_SET_NO":999,"REV_AT_EPOCH":5650,"BSTAR":-0.0010327,"MEAN_MOTION_DOT":-3.53e-6,"MEAN_MOTION_DDOT":0}]
